TRANSPORTER-16 OBJECT BF
1 68469U 26067BF  26115.55129389  .00003238  00000+0  16566-3 0  9993
2 68469  97.4504  74.7765 0001613 234.4670 125.6413 15.17341128  3959
TRANSPORTER-16 OBJECT BG
1 68470U 26067BG  26115.56290382  .00008422  00000+0  43211-3 0  9995
2 68470  97.4440  74.7415 0005073 245.7615 114.3089 15.16771216  3958
TRANSPORTER-16 OBJECT BH
1 68471U 26067BH  26115.54020007  .00006466  00000+0  65841-3 0  9998
2 68471  97.7538  74.5864 0002743 201.8877 158.2225 14.91051176  3889
FLYLAB1                 
1 68472U 26067BJ  26115.60931782  .00000651  00000+0  71673-4 0  9998
2 68472  97.7596  74.6625 0003651 192.8282 167.2844 14.90861252  3899
TRANSPORTER-16 OBJECT BK
1 68473U 26067BK  26115.60748983  .00006746  00000+0  33498-3 0  9991
2 68473  97.4501  74.8531 0001893 156.8165 203.3154 15.18001801  3946
BLACK KITE-2            
1 68474U 26067BL  26115.58420726  .00002255  00000+0  22607-3 0  9992
2 68474  97.7512  74.6747 0003883  71.7077 288.4564 14.92334148  3883
TRANSPORTER-16 OBJECT BM
1 68475U 26067BM  26115.53949032  .00008117  00000+0  82265-3 0  9993
2 68475  97.7484  74.5748 0002167 210.6665 149.4427 14.91164977  3359
TRANSPORTER-16 OBJECT BN
1 68476U 26067BN  26115.58450157  .00003652  00000+0  36263-3 0  9990
2 68476  97.7527  74.6775 0004091  82.4602 277.7082 14.92339702  3884
TRANSPORTER-16 OBJECT BP
1 68477U 26067BP  26115.53950836  .00007444  00000+0  75550-3 0  9990
2 68477  97.7491  74.5755 0002816 217.6528 142.4494 14.91137396  3287
FOSSASAT-2E25           
1 68478U 26067BQ  26114.58262756  .00002075  00000+0  20999-3 0  9994
2 68478  97.7562  73.6911 0003475  94.3555 265.8061 14.92040553  3732
TRANSPORTER-16 OBJECT BR
1 68479U 26067BR  26115.58778580  .00004913  00000+0  48819-3 0  9997
2 68479  97.7514  74.6696 0003213  81.7722 278.3861 14.92148166  3889
TRANSPORTER-16 OBJECT BS
1 68480U 26067BS  26115.64688852  .00003231  00000+0  31938-3 0  9994
2 68480  97.7591  74.7666 0005716  85.8437 274.3436 14.92592974  3897
TORO3                   
1 68481U 26067BT  26115.58972208  .00001680  00000+0  17125-3 0  9997
2 68481  97.7633  74.6979 0004177 114.0687 246.0969 14.91997938  3887
TRANSPORTER-16 OBJECT BU
1 68482U 26067BU  26115.64690614  .00003373  00000+0  33320-3 0  9999
2 68482  97.7538  74.7528 0005190  73.4194 286.7595 14.92592258  3894
TRANSPORTER-16 OBJECT BV
1 68483U 26067BV  26115.78544765  .00004283  00000+0  42449-3 0  9993
2 68483  97.7612  74.8976 0004912  95.5695 264.6084 14.92321292  3917
TRANSPORTER-16 OBJECT BW
1 68484U 26067BW  26114.25079948  .00001350  00000+0  13921-3 0  9996
2 68484  97.7583  73.3622 0002892 116.5259 243.6256 14.91861678  3680
TRANSPORTER-16 OBJECT BX
1 68485U 26067BX  26115.79148649  .00006579  00000+0  65316-3 0  9995
2 68485  97.7549  74.8734 0003025 104.0611 256.0945 14.92062502  3915
TRANSPORTER-16 OBJECT BY
1 68486U 26067BY  26115.52608844  .00002213  00000+0  22490-3 0  9992
2 68486  97.7547  74.6045 0002389 105.3724 254.7759 14.91798481  3872
TRANSPORTER-16 OBJECT BZ
1 68487U 26067BZ  26115.58565321  .00003762  00000+0  37401-3 0  9999
2 68487  97.7507  74.6713 0003501  74.7048 285.4558 14.92275825  3888
TRANSPORTER-16 OBJECT CA
1 68488U 26067CA  26115.53098879  .00000999  00000+0  10506-3 0  9990
2 68488  97.7537  74.5968 0001440 130.3296 229.8049 14.91592036  3878
TRANSPORTER-16 OBJECT CB
1 68489U 26067CB  26115.60202412  .00002091  00000+0  21549-3 0  9993
2 68489  97.7505  74.6474 0000830 188.7979 171.3225 14.91303716  3887
TRANSPORTER-16 OBJECT CC
1 68490U 26067CC  26115.53353322  .00001668  00000+0  17267-3 0  9995
2 68490  97.7580  74.6040 0002223 156.3004 203.8318 14.91374861  3871
TRANSPORTER-16 OBJECT CD
1 68491U 26067CD  26115.53773809  .00001491  00000+0  15586-3 0  9998
2 68491  97.7532  74.5860 0001949 198.2315 161.8834 14.91148752  3876
TRANSPORTER-16 OBJECT CE
1 68492U 26067CE  26115.53868426  .00004733  00000+0  48256-3 0  9991
2 68492  97.7528  74.5851 0002257 202.7975 157.3144 14.91137215  3874
TRANSPORTER-16 OBJECT CF
1 68493U 26067CF  26115.53754005  .00003180  00000+0  32581-3 0  9998
2 68493  97.7615  74.6095 0003521 174.2545 185.8715 14.91176885  3870
ICEYE-X71               
1 68494U 26067CG  26115.53296958  .00002019  00000+0  20769-3 0  9992
2 68494  97.7578  74.6043 0002105 153.4375 206.6952 14.91412298  3875
GRAVITAS                
1 68495U 26067CH  26110.92537546  .00000320  00000+0  44402-4 0  9996
2 68495  97.7600  70.0281 0001637 178.9108 181.2110 14.84194594  3187
ICEYE-X73               
1 68496U 26067CJ  26115.59052895  .00002057  00000+0  20869-3 0  9993
2 68496  97.7574  74.6818 0003262 104.0262 256.1319 14.91958029  3880
ICEYE-X75               
1 68497U 26067CK  26115.59090326  .00002105  00000+0  21350-3 0  9995
2 68497  97.7556  74.6763 0002984 100.4773 259.6783 14.91940999  3887
TRANSPORTER-16 OBJECT CL
1 68498U 26067CL  26115.53575463  .00002755  00000+0  28243-3 0  9999
2 68498  97.7508  74.5834 0001300 198.6958 161.4213 14.91262682  3871
TRANSPORTER-16 OBJECT CM
1 68499U 26067CM  26115.53278539  .00001402  00000+0  14597-3 0  9999
2 68499  97.7549  74.5965 0001314 142.0818 218.0494 14.91405028  3878
ICEYE-X74               
1 68500U 26067CN  26115.59929971  .00001842  00000+0  18975-3 0  9993
2 68500  97.7584  74.6732 0002109 147.3861 212.7489 14.91456467  3881
TRANSPORTER-16 OBJECT CP
1 68501U 26067CP  26115.53591960  .00001595  00000+0  16585-3 0  9991
2 68501  97.7596  74.6049 0002958 172.3235 187.8030 14.91259580  3871
ICEYE-X76               
1 68502U 26067CQ  26115.53102846  .00001855  00000+0  19073-3 0  9997
2 68502  97.7590  74.6105 0002286 142.0743 218.0637 14.91525100  3875
FLYLAB2                 
1 68503U 26067CR  26115.61207744  .00001745  00000+0  18415-3 0  9997
2 68503  97.7536  74.6440 0003844 223.8688 136.2225 14.90549611  3882
ICEYE-X72               
1 68504U 26067CS  26115.59364085  .00002067  00000+0  21059-3 0  9993
2 68504  97.7589  74.6824 0002895 120.3102 239.8404 14.91783756  3884
GEMS2-AMETHYST          
1 68505U 26067CT  26115.61322995  .00004690  00000+0  48330-3 0  9996
2 68505  97.7566  74.6517 0004441 203.2215 156.8803 14.90704809  3886
STARLINK-37262          
1 68508U 26068A   26114.69159949  .00226672  00000+0  11203-2 0  9998
2 68508  53.1563 278.7861 0000643  85.3168 274.7928 15.80906488  3949
STARLINK-36292          
1 68509U 26068B   26114.75329821 -.00180023  00000+0 -92424-3 0  9990
2 68509  53.1562 278.4593 0001385   2.3158 357.7871 15.80950967  3951
STARLINK-37260          
1 68510U 26068C   26114.75330697  .00107841  00000+0  54237-3 0  9990
2 68510  53.1560 278.4587 0001419  39.3761 320.7365 15.80902599  3958
STARLINK-37280          
1 68511U 26068D   26114.56289689  .00191356  00000+0  94884-3 0  9990
2 68511  53.1556 279.4045 0000885  76.6314 283.4808 15.80938479  3928
STARLINK-37286          
1 68512U 26068E   26114.75181031  .00072033  00000+0  36524-3 0  9991
2 68512  53.1564 278.4495 0000891  21.2747 338.8313 15.80885752  3953
STARLINK-36250          
1 68513U 26068F   26114.68783514  .00153858  00000+0  76702-3 0  9995
2 68513  53.1563 278.7612 0001027  37.4284 322.6810 15.80935980  3945
STARLINK-37251          
1 68514U 26068G   26115.91668981 -.02472819  00000+0 -22234-1 0  9997
2 68514  53.1590 272.6606 0001097  55.3974  73.6799 15.70827557  5405
STARLINK-36293          
1 68515U 26068H   26112.97941730  .00379916  00000+0  18285-2 0  9999
2 68515  53.1568 287.3051 0001832  44.5246 315.5924 15.81068158  3678
STARLINK-36290          
1 68516U 26068J   26115.33335648  .00119929  00000+0  60450-3 0  9996
2 68516  53.1562 275.4986 0000899  86.6749   2.1580 15.80810153  5268
STARLINK-36298          
1 68517U 26068K   26115.91668981 -.02425639  00000+0 -26193-1 0  9996
2 68517  53.1595 272.7105 0001144  51.3589  53.1307 15.66355244  5355
STARLINK-36857          
1 68518U 26068L   26114.74655410  .00193069  00000+0  95673-3 0  9996
2 68518  53.1565 278.4149 0001226  19.6602 340.4468 15.80947309  3957
STARLINK-36326          
1 68519U 26068M   26114.81051634  .00262997  00000+0  12915-2 0  9997
2 68519  53.1547 278.1060 0001743 201.7550 158.3399 15.80945013  3967
STARLINK-37126          
1 68520U 26068N   26113.67107400  .00295485  00000+0  14409-2 0  9993
2 68520  53.1564 283.7948 0000874 108.1875 251.9243 15.81008306  3783
STARLINK-36347          
1 68521U 26068P   26114.80827372  .00147401  00000+0  73589-3 0  9996
2 68521  53.1572 278.0888 0001052  61.1277 298.9851 15.80925254  3961
STARLINK-36322          
1 68522U 26068Q   26114.74430138  .00184239  00000+0  91397-3 0  9997
2 68522  53.1565 278.3987 0000417 118.9861 241.1204 15.80949277  3953
STARLINK-37208          
1 68523U 26068R   26114.55314097  .00242975  00000+0  11945-2 0  9994
2 68523  53.1573 279.3403 0002035 325.6103  34.4788 15.80977313  3920
STARLINK-36302          
1 68524U 26068S   26114.67933463  .00371471  00000+0  17445-2 0  9997
2 68524  53.1574 278.7021 0001227  24.8806 335.2276 15.81622397  3947
STARLINK-36311          
1 68525U 26068T   26114.67808132  .00217784  00000+0  10745-2 0  9994
2 68525  53.1568 278.6943 0000586 358.4216   1.6804 15.80970511  3945
STARLINK-37178          
1 68526U 26068U   26115.91668981 -.02473115  00000+0 -21352-1 0  9990
2 68526  53.1590 272.5523 0001108  64.4486 117.1738 15.71780981  5404
STARLINK-37248          
1 68527U 26068V   26114.67733371  .00241079  00000+0  11865-2 0  9996
2 68527  53.1563 278.6902 0000930  58.0104 302.1009 15.80957779  3946
STARLINK-37241          
1 68528U 26068W   26115.33335648 -.00020552  00000+0 -10082-3 0  9990
2 68528  53.1564 275.3843 0000937  97.3420  47.0010 15.80875049  5319
STARLINK-37244          
1 68529U 26068X   26115.91668981 -.02494325  00000+0 -21728-1 0  9996
2 68529  53.1588 272.5271 0001122  61.0061 132.7661 15.71601079  5400
